NORAD_CAT_ID,OBJECT_NAME,OBJECT_TYPE,EPOCH,MEAN_MOTION,ECCENTRICITY,INCLINATION,RA_OF_ASC_NODE,ARG_OF_PERICENTER,MEAN_ANOMALY,BSTAR,MEAN_MOTION_DOT,MEAN_MOTION_DDOT,TLE_LINE0,TLE_LINE1,TLE_LINE2,SEMIMAJOR_AXIS,PERIOD,APOGEE,PERIGEE,DECAYED
51853.0,STARLINK-3539,PAYLOAD,2022-11-14 10:59:25,15.08830308,0.0001719,53.2176,56.556,49.5734,310.5408,0.00039833,6.055e-05,0.0,0 STARLINK-3539,1 51853U 22022B   22318.45792857  .00006055  00000-0  39833-3 0  9998,2 51853  53.2176  56.5560 0001719  49.5734 310.5408 15.08830308 40107,6917.91,95.438,540.964,538.586,0.0
51853.0,STARLINK-3539,PAYLOAD,2022-11-14 14:10:11,15.0882896,0.0001754,53.2176,55.9613,51.903,308.212,0.00039896,6.065e-05,0.0,0 STARLINK-3539,1 51853U 22022B   22318.59041027  .00006065  00000-0  39896-3 0  9999,2 51853  53.2176  55.9613 0001754  51.9030 308.2120 15.08828960 40122,6917.9140000000025,95.438,540.993,538.566,0.0
51853.0,STARLINK-3539,PAYLOAD,2022-11-14 18:56:20,15.08829949,0.0001753,53.2174,55.0691,50.8481,309.2667,0.00039496,6.002e-05,0.0,0 STARLINK-3539,1 51853U 22022B   22318.78913184  .00006002  00000-0  39496-3 0  9999,2 51853  53.2174  55.0691 0001753  50.8481 309.2667 15.08829949 40152,6917.911,95.438,540.989,538.563,0.0
51853.0,STARLINK-3539,PAYLOAD,2022-11-15 12:25:35,15.08835141,0.0001823,53.2177,51.7974,51.7896,308.326,0.00031796,4.775e-05,0.0,0 STARLINK-3539,1 51853U 22022B   22319.51777520  .00004775  00000-0  31796-3 0  9993,2 51853  53.2177  51.7974 0001823  51.7896 308.3260 15.08835141 40262,6917.895,95.438,541.021,538.499,0.0
51853.0,STARLINK-3539,PAYLOAD,2022-11-15 18:47:08,15.08835908,0.0001797,53.2177,50.6079,51.9166,308.1988,0.00026593,3.946e-05,0.0,0 STARLINK-3539,1 51853U 22022B   22319.78273609  .00003946  00000-0  26593-3 0  9999,2 51853  53.2177  50.6079 0001797  51.9166 308.1988 15.08835908 40309,6917.893,95.438,541.001,538.515,0.0
51853.0,STARLINK-3539,PAYLOAD,2022-11-16 12:16:22,15.08841825,0.0001818,53.2182,47.3367,53.723,306.393,0.00026962,4.006e-05,0.0,0 STARLINK-3539,1 51853U 22022B   22320.51137612  .00004006  00000-0  26962-3 0  9993,2 51853  53.2182  47.3367 0001818  53.7230 306.3930 15.08841825 40418,6917.875,95.437,540.997,538.482,0.0
51853.0,STARLINK-3539,PAYLOAD,2022-11-16 17:02:32,15.08841774,0.0001814,53.2178,46.4445,52.3391,307.7766,0.00023466,3.449e-05,0.0,0 STARLINK-3539,1 51853U 22022B   22320.71009629  .00003449  00000-0  23466-3 0  9997,2 51853  53.2178  46.4445 0001814  52.3391 307.7766 15.08841774 40447,6917.875,95.437,540.995,538.485,0.0
51853.0,STARLINK-3539,PAYLOAD,2022-11-17 12:07:09,15.08843504,0.0001776999999999,53.2181,42.8768,49.2414,310.8733,0.0002064,2.999e-05,0.0,0 STARLINK-3539,1 51853U 22022B   22321.50497473  .00002999  00000-0  20640-3 0  9993,2 51853  53.2181  42.8768 0001777  49.2414 310.8733 15.08843504 40563,6917.87,95.437,540.964,538.505,0.0
51853.0,STARLINK-3539,PAYLOAD,2022-11-17 15:17:56,15.08844995,0.000184,53.2183,42.2827,47.7717,312.3431,0.00019958,2.89e-05,0.0,0 STARLINK-3539,1 51853U 22022B   22321.63745383  .00002890  00000-0  19958-3 0  9993,2 51853  53.2183  42.2827 0001840  47.7717 312.3431 15.08844995 40584,6917.865,95.437,541.003,538.457,0.0
51853.0,STARLINK-3539,PAYLOAD,2022-11-18 11:57:56,15.08848276,0.0001897,53.2184,38.4178,44.7949,315.3196,0.00017553,2.507e-05,0.0,0 STARLINK-3539,1 51853U 22022B   22322.49856879  .00002507  00000-0  17553-3 0  9995,2 51853  53.2184  38.4178 0001897  44.7949 315.3196 15.08848276 40719,6917.855,95.437,541.0319999999998,538.408,0.0
51853.0,STARLINK-3539,PAYLOAD,2022-11-18 15:08:42,15.08847975,0.0001908,53.2184,37.823,45.2576,314.8572,0.00015666,2.207e-05,0.0,0 STARLINK-3539,1 51853U 22022B   22322.63104839  .00002207  00000-0  15666-3 0  9993,2 51853  53.2184  37.8230 0001908  45.2576 314.8572 15.08847975 40735,6917.856,95.437,541.0409999999998,538.401,0.0
51853.0,STARLINK-3539,PAYLOAD,2022-11-19 10:13:20,15.08842761,0.0001951,53.2181,34.2547,44.8679,315.2471,7.385e-05,8.87e-06,0.0,0 STARLINK-3539,1 51853U 22022B   22323.42592931  .00000887  00000-0  73850-4 0  9997,2 51853  53.2181  34.2547 0001951  44.8679 315.2471 15.08842761 40855,6917.871999999999,95.437,541.087,538.387,0.0
51853.0,STARLINK-3539,PAYLOAD,2022-11-19 13:24:06,15.08846376,0.0001959,53.2182,33.6598,44.9809,315.1342,0.000102,1.336e-05,0.0,0 STARLINK-3539,1 51853U 22022B   22323.55840690  .00001336  00000-0  10200-3 0  9998,2 51853  53.2182  33.6598 0001959  44.9809 315.1342 15.08846376 40873,6917.861,95.437,541.081,538.371,0.0
51853.0,STARLINK-3539,PAYLOAD,2022-11-19 14:59:29,15.08847465,0.0001964,53.2182,33.3624,45.095,315.0201,0.00011427,1.531e-05,0.0,0 STARLINK-3539,1 51853U 22022B   22323.62464610  .00001531  00000-0  11427-3 0  9999,2 51853  53.2182  33.3624 0001964  45.0950 315.0201 15.08847465 40889,6917.858,95.437,541.081,538.364,0.0
51853.0,STARLINK-3539,PAYLOAD,2022-11-20 11:39:30,15.08844555,0.0001841,53.2189,29.496,51.382,308.7337,8.8135e-05,1.115e-05,0.0,0 STARLINK-3539,1 51853U 22022B   22324.48576484  .00001115  00000-0  88135-4 0  9996,2 51853  53.2189  29.4960 0001841  51.3820 308.7337 15.08844555 41017,6917.866,95.437,541.005,538.4580000000002,0.0
51853.0,STARLINK-3539,PAYLOAD,2022-11-20 21:11:49,15.08836411,0.0002023,53.2187,27.7125,45.0754,315.0402,-1.0803e-06,-3.05e-06,0.0,0 STARLINK-3539,1 51853U 22022B   22324.88321327 -.00000305  00000-0 -10803-5 0  9994,2 51853  53.2187  27.7125 0002023  45.0754 315.0402 15.08836411 41070,6917.891,95.438,541.156,538.357,0.0
51853.0,STARLINK-3539,PAYLOAD,2022-11-21 09:54:55,15.08831409,0.0001967,53.2187,25.3333,43.9108,316.204,-5.1804e-05,-1.112e-05,0.0,0 STARLINK-3539,1 51853U 22022B   22325.41314092 -.00001112  00000-0 -51804-4 0  9997,2 51853  53.2187  25.3333 0001967  43.9108 316.2040 15.08831409 41153,6917.906999999997,95.438,541.132,538.411,0.0
51853.0,STARLINK-3539,PAYLOAD,2022-11-21 11:30:18,15.08831268,0.0001943,53.2186,25.0361,44.2983,315.8164,-4.4182e-05,-9.91e-06,0.0,0 STARLINK-3539,1 51853U 22022B   22325.47938092 -.00000991  00000-0 -44182-4 0  9990,2 51853  53.2186  25.0361 0001943  44.2983 315.8164 15.08831268 41165,6917.906999999997,95.438,541.116,538.428,0.0
51853.0,STARLINK-3539,PAYLOAD,2022-11-21 21:02:37,15.08836909,0.0001983,53.2187,23.252,43.6494,316.4655,-4.9177e-06,-3.66e-06,0.0,0 STARLINK-3539,1 51853U 22022B   22325.87681772 -.00000366  00000-0 -49177-5 0  9990,2 51853  53.2187  23.2520 0001983  43.6494 316.4655 15.08836909 41223,6917.89,95.438,541.127,538.383,0.0
51853.0,STARLINK-3539,PAYLOAD,2022-11-22 11:21:04,15.08844312,0.0001981,53.2187,20.5758,47.6193,312.4967,8.188600000000001e-05,1.015e-05,0.0,0 STARLINK-3539,1 51853U 22022B   22326.47297193  .00001015  00000-0  81886-4 0  9999,2 51853  53.2187  20.5758 0001981  47.6193 312.4967 15.08844312 41313,6917.8669999999975,95.437,541.1030000000002,538.362,0.0
51853.0,STARLINK-3539,PAYLOAD,2022-11-22 16:07:13,15.08848177,0.0001991,53.2187,19.6837,43.2574,316.8575,0.0001107,1.474e-05,0.0,0 STARLINK-3539,1 51853U 22022B   22326.67168845  .00001474  00000-0  11070-3 0  9998,2 51853  53.2187  19.6837 0001991  43.2574 316.8575 15.08848177 41345,6917.855,95.437,541.0980000000002,538.3430000000002,0.0
51853.0,STARLINK-3539,PAYLOAD,2022-11-23 03:14:56,15.0883816,0.0002005,53.2188,17.6021,44.6246,315.4907,9.4813e-05,1.221e-05,0.0,0 STARLINK-3539,1 51853U 22022B   22327.13537547  .00001221  00000-0  94813-4 0  9996,2 51853  53.2188  17.6021 0002005  44.6246 315.4907 15.08838160 41410,6917.886,95.438,541.138,538.364,0.0
51853.0,STARLINK-3539,PAYLOAD,2022-11-23 09:36:28,15.08839468,0.000201,53.2187,16.4127,44.6389,315.4765,0.0001151,1.544e-05,0.0,0 STARLINK-3539,1 51853U 22022B   22327.40033505  .00001544  00000-0  11510-3 0  9991,2 51853  53.2187  16.4127 0002010  44.6389 315.4765 15.08839468 41455,6917.882,95.438,541.138,538.357,0.0
51853.0,STARLINK-3539,PAYLOAD,2022-11-23 15:58:02,15.088293099999998,0.000193,53.2186,15.2232,46.3066,313.8086,6.8082e-05,7.95e-06,0.0,0 STARLINK-3539,1 51853U 22022B   22327.66530368  .00000795  00000-0  68082-4 0  9992,2 51853  53.2186  15.2232 0001930  46.3066 313.8086 15.08829310 41496,6917.913000000001,95.438,541.113,538.443,0.0
51853.0,STARLINK-3539,PAYLOAD,2022-11-24 09:27:16,15.08842739,0.0002083,53.219,11.9519,45.7285,314.3877,5.9315e-05,6.56e-06,0.0,0 STARLINK-3539,1 51853U 22022B   22328.39393743  .00000656  00000-0  59315-4 0  9992,2 51853  53.2190  11.9519 0002083  45.7285 314.3877 15.08842739 41605,6917.871999999999,95.437,541.178,538.2959999999998,0.0
51853.0,STARLINK-3539,PAYLOAD,2022-11-24 12:38:02,15.08846153,0.0001981,53.2186,11.3573,46.2607,313.8549,2.7238e-05,1.45e-06,0.0,0 STARLINK-3539,1 51853U 22022B   22328.52641572  .00000145  00000-0  27238-4 0  9995,2 51853  53.2186  11.3573 0001981  46.2607 313.8549 15.08846153 41620,6917.861999999999,95.437,541.097,538.356,0.0
51853.0,STARLINK-3539,PAYLOAD,2022-11-24 20:34:57,15.08847617,0.0002041,53.2187,9.8709,43.7837,316.3316,2.9237e-05,1.77e-06,0.0,0 STARLINK-3539,1 51853U 22022B   22328.85761332  .00000177  00000-0  29237-4 0  9994,2 51853  53.2187   9.8709 0002041  43.7837 316.3316 15.08847617 41670,6917.857,95.437,541.134,538.31,0.0
51853.0,STARLINK-3539,PAYLOAD,2022-11-25 12:28:49,15.08845629,0.0002018,53.2189,6.8971,44.3274,315.788,4.3687e-05,4.07e-06,0.0,0 STARLINK-3539,1 51853U 22022B   22329.52001421  .00000407  00000-0  43687-4 0  9996,2 51853  53.2189   6.8971 0002018  44.3274 315.7880 15.08845629 41777,6917.863,95.437,541.124,538.332,0.0
51853.0,STARLINK-3539,PAYLOAD,2022-11-25 14:04:12,15.08845451,0.0002019,53.2188,6.6,42.53,317.5848,7.9617e-05,9.79e-06,0.0,0 STARLINK-3539,1 51853U 22022B   22329.58625358  .00000979  00000-0  79617-4 0  9999,2 51853  53.2188   6.6000 0002019  42.5300 317.5848 15.08845451 41786,6917.864000000001,95.437,541.125,538.332,0.0
